[{"OBJECT_NAME":"STARLINK-30462","OBJECT_ID":"2023-146M","EPOCH":"2026-03-09T22:00:01.999584","MEAN_MOTION":15.06201719,"ECCENTRICITY":0.00020644,"INCLINATION":43.0005,"RA_OF_ASC_NODE":311.9584,"ARG_OF_PERICENTER":259.8458,"MEAN_ANOMALY":49.1349,"EPHEMERIS_TYPE":0,"CLASSIFICATION_TYPE":"U","NORAD_CAT_ID":57902,"ELEMENT_SET_NO":999,"REV_AT_EPOCH":577,"BSTAR":0.10381501,"MEAN_MOTION_DOT":0.01694699,"MEAN_MOTION_DDOT":0},{"OBJECT_NAME":"KUIPER-00215","OBJECT_ID":"2026-030R","EPOCH":"2026-03-09T17:12:37.719936","MEAN_MOTION":15.34495766,"ECCENTRICITY":0.00103674,"INCLINATION":51.8839,"RA_OF_ASC_NODE":219.2565,"ARG_OF_PERICENTER":59.887,"MEAN_ANOMALY":300.3142,"EPHEMERIS_TYPE":0,"CLASSIFICATION_TYPE":"U","NORAD_CAT_ID":67779,"ELEMENT_SET_NO":999,"REV_AT_EPOCH":509,"BSTAR":0.00089268606,"MEAN_MOTION_DOT":0.00030069,"MEAN_MOTION_DDOT":0}]
